[{"OBJECT_NAME":"STARLINK-5264","OBJECT_ID":"2022-141BB","EPOCH":"2026-01-15T21:56:07.182528","MEAN_MOTION":15.08837085,"ECCENTRICITY":0.00013802,"INCLINATION":53.2168,"RA_OF_ASC_NODE":195.8763,"ARG_OF_PERICENTER":92.1912,"MEAN_ANOMALY":267.9238,"EPHEMERIS_TYPE":0,"CLASSIFICATION_TYPE":"U","NORAD_CAT_ID":54206,"ELEMENT_SET_NO":999,"REV_AT_EPOCH":17852,"BSTAR":8.302705e-6,"MEAN_MOTION_DOT":-1.56e-6,"MEAN_MOTION_DDOT":0},{"OBJECT_NAME":"STARLINK-5262","OBJECT_ID":"2022-141BC","EPOCH":"2026-01-15T23:08:19.094496","MEAN_MOTION":15.08817484,"ECCENTRICITY":0.00014329,"INCLINATION":53.2154,"RA_OF_ASC_NODE":230.4226,"ARG_OF_PERICENTER":57.7213,"MEAN_ANOMALY":302.3918,"EPHEMERIS_TYPE":0,"CLASSIFICATION_TYPE":"U","NORAD_CAT_ID":54207,"ELEMENT_SET_NO":999,"REV_AT_EPOCH":17804,"BSTAR":-0.00010278541,"MEAN_MOTION_DOT":-1.922e-5,"MEAN_MOTION_DDOT":0},{"OBJECT_NAME":"STARLINK-5255","OBJECT_ID":"2022-141BD","EPOCH":"2026-01-15T19:15:50.996448","MEAN_MOTION":15.08838891,"ECCENTRICITY":0.00013468,"INCLINATION":53.2155,"RA_OF_ASC_NODE":206.5852,"ARG_OF_PERICENTER":93.3169,"MEAN_ANOMALY":266.7978,"EPHEMERIS_TYPE":0,"CLASSIFICATION_TYPE":"U","NORAD_CAT_ID":54208,"ELEMENT_SET_NO":999,"REV_AT_EPOCH":17836,"BSTAR":-4.885337e-6,"MEAN_MOTION_DOT":-3.66e-6,"MEAN_MOTION_DDOT":0},{"OBJECT_NAME":"STARLINK-5259","OBJECT_ID":"2022-141BE","EPOCH":"2026-01-15T23:14:54.495456","MEAN_MOTION":15.08840661,"ECCENTRICITY":0.00015133,"INCLINATION":53.2163,"RA_OF_ASC_NODE":220.4518,"ARG_OF_PERICENTER":92.6522,"MEAN_ANOMALY":267.4644,"EPHEMERIS_TYPE":0,"CLASSIFICATION_TYPE":"U","NORAD_CAT_ID":54209,"ELEMENT_SET_NO":999,"REV_AT_EPOCH":17818,"BSTAR":1.7645094e-5,"MEAN_MOTION_DOT":-7.0e-8,"MEAN_MOTION_DDOT":0},{"OBJECT_NAME":"STARLINK-5464","OBJECT_ID":"2022-175A","EPOCH":"2026-01-15T17:52:24.938112","MEAN_MOTION":15.08839256,"ECCENTRICITY":0.00014064,"INCLINATION":53.2173,"RA_OF_ASC_NODE":276.9932,"ARG_OF_PERICENTER":94.6313,"MEAN_ANOMALY":265.484,"EPHEMERIS_TYPE":0,"CLASSIFICATION_TYPE":"U","NORAD_CAT_ID":54758,"ELEMENT_SET_NO":999,"REV_AT_EPOCH":17199,"BSTAR":5.944038e-6,"MEAN_MOTION_DOT":-1.93e-6,"MEAN_MOTION_DDOT":0},{"OBJECT_NAME":"STARLINK-5215","OBJECT_ID":"2022-175B","EPOCH":"2026-01-15T17:57:43.337664","MEAN_MOTION":15.08838649,"ECCENTRICITY":0.00014012,"INCLINATION":53.2174,"RA_OF_ASC_NODE":277.0086,"ARG_OF_PERICENTER":68.3004,"MEAN_ANOMALY":291.8137,"EPHEMERIS_TYPE":0,"CLASSIFICATION_TYPE":"U","NORAD_CAT_ID":54759,"ELEMENT_SET_NO":999,"REV_AT_EPOCH":17199,"BSTAR":3.16005e-7,"MEAN_MOTION_DOT":-2.83e-6,"MEAN_MOTION_DDOT":0},{"OBJECT_NAME":"STARLINK-5220","OBJECT_ID":"2022-175C","EPOCH":"2026-01-15T17:54:23.508288","MEAN_MOTION":15.08840889,"ECCENTRICITY":0.000181,"INCLINATION":53.2176,"RA_OF_ASC_NODE":281.9827,"ARG_OF_PERICENTER":94.6516,"MEAN_ANOMALY":265.4683,"EPHEMERIS_TYPE":0,"CLASSIFICATION_TYPE":"U","NORAD_CAT_ID":54760,"ELEMENT_SET_NO":999,"REV_AT_EPOCH":17192,"BSTAR":2.6627313e-5,"MEAN_MOTION_DOT":1.36e-6,"MEAN_MOTION_DDOT":0},{"OBJECT_NAME":"STARLINK-5202","OBJECT_ID":"2022-175D","EPOCH":"2026-01-15T17:59:42.535968","MEAN_MOTION":15.08837396,"ECCENTRICITY":0.00015088,"INCLINATION":53.2174,"RA_OF_ASC_NODE":282.0072,"ARG_OF_PERICENTER":93.5382,"MEAN_ANOMALY":266.5782,"EPHEMERIS_TYPE":0,"CLASSIFICATION_TYPE":"U","NORAD_CAT_ID":54761,"ELEMENT_SET_NO":999,"REV_AT_EPOCH":17192,"BSTAR":1.5401794e-5,"MEAN_MOTION_DOT":-4.3e-7,"MEAN_MOTION_DDOT":0},{"OBJECT_NAME":"STARLINK-5214","OBJECT_ID":"2022-175E","EPOCH":"2026-01-15T17:38:29.452704","MEAN_MOTION":15.08842417,"ECCENTRICITY":0.00013505,"INCLINATION":53.2176,"RA_OF_ASC_NODE":281.9195,"ARG_OF_PERICENTER":73.8328,"MEAN_ANOMALY":286.2812,"EPHEMERIS_TYPE":0,"CLASSIFICATION_TYPE":"U","NORAD_CAT_ID":54762,"ELEMENT_SET_NO":999,"REV_AT_EPOCH":17192,"BSTAR":8.1014032e-5,"MEAN_MOTION_DOT":1.002e-5,"MEAN_MOTION_DDOT":0},{"OBJECT_NAME":"STARLINK-5191","OBJECT_ID":"2022-175F","EPOCH":"2026-01-15T17:49:05.791296","MEAN_MOTION":15.08841796,"ECCENTRICITY":0.00012252,"INCLINATION":53.2174,"RA_OF_ASC_NODE":281.9625,"ARG_OF_PERICENTER":83.0344,"MEAN_ANOMALY":277.0788,"EPHEMERIS_TYPE":0,"CLASSIFICATION_TYPE":"U","NORAD_CAT_ID":54763,"ELEMENT_SET_NO":999,"REV_AT_EPOCH":17192,"BSTAR":-0.00020937333,"MEAN_MOTION_DOT":-3.619e-5,"MEAN_MOTION_DDOT":0},{"OBJECT_NAME":"STARLINK-5458","OBJECT_ID":"2022-175G","EPOCH":"2026-01-15T23:40:11.138592","MEAN_MOTION":15.088418,"ECCENTRICITY":0.00014209,"INCLINATION":53.2181,"RA_OF_ASC_NODE":280.6472,"ARG_OF_PERICENTER":82.9673,"MEAN_ANOMALY":277.1481,"EPHEMERIS_TYPE":0,"CLASSIFICATION_TYPE":"U","NORAD_CAT_ID":54764,"ELEMENT_SET_NO":999,"REV_AT_EPOCH":17196,"BSTAR":3.4011091e-5,"MEAN_MOTION_DOT":2.53e-6,"MEAN_MOTION_DDOT":0},{"OBJECT_NAME":"STARLINK-5471","OBJECT_ID":"2022-175J","EPOCH":"2026-01-15T17:27:53.020800","MEAN_MOTION":15.08851473,"ECCENTRICITY":0.00015483,"INCLINATION":53.2177,"RA_OF_ASC_NODE":281.8741,"ARG_OF_PERICENTER":83.1042,"MEAN_ANOMALY":277.0127,"EPHEMERIS_TYPE":0,"CLASSIFICATION_TYPE":"U","NORAD_CAT_ID":54766,"ELEMENT_SET_NO":999,"REV_AT_EPOCH":17192,"BSTAR":8.0595328e-5,"MEAN_MOTION_DOT":9.95e-6,"MEAN_MOTION_DDOT":0},{"OBJECT_NAME":"STARLINK-5472","OBJECT_ID":"2022-175K","EPOCH":"2026-01-15T17:22:36.760512","MEAN_MOTION":15.0877797,"ECCENTRICITY":0.00012095,"INCLINATION":53.2184,"RA_OF_ASC_NODE":281.849,"ARG_OF_PERICENTER":107.299,"MEAN_ANOMALY":252.8134,"EPHEMERIS_TYPE":0,"CLASSIFICATION_TYPE":"U","NORAD_CAT_ID":54767,"ELEMENT_SET_NO":999,"REV_AT_EPOCH":17192,"BSTAR":0.0010951693,"MEAN_MOTION_DOT":0.00017155,"MEAN_MOTION_DDOT":0},{"OBJECT_NAME":"STARLINK-5444","OBJECT_ID":"2022-175L","EPOCH":"2026-01-15T19:51:44.029152","MEAN_MOTION":15.08846608,"ECCENTRICITY":0.00012147,"INCLINATION":53.2169,"RA_OF_ASC_NODE":266.819,"ARG_OF_PERICENTER":110.4575,"MEAN_ANOMALY":249.6547,"EPHEMERIS_TYPE":0,"CLASSIFICATION_TYPE":"U","NORAD_CAT_ID":54768,"ELEMENT_SET_NO":999,"REV_AT_EPOCH":17214,"BSTAR":-0.00020548704,"MEAN_MOTION_DOT":-3.557e-5,"MEAN_MOTION_DDOT":0},{"OBJECT_NAME":"STARLINK-5448","OBJECT_ID":"2022-175N","EPOCH":"2026-01-15T01:54:35.656704","MEAN_MOTION":15.08823613,"ECCENTRICITY":0.00013916,"INCLINATION":53.2178,"RA_OF_ASC_NODE":269.9702,"ARG_OF_PERICENTER":81.2227,"MEAN_ANOMALY":278.8923,"EPHEMERIS_TYPE":0,"CLASSIFICATION_TYPE":"U","NORAD_CAT_ID":54770,"ELEMENT_SET_NO":999,"REV_AT_EPOCH":17203,"BSTAR":3.590893e-6,"MEAN_MOTION_DOT":-2.31e-6,"MEAN_MOTION_DDOT":0},{"OBJECT_NAME":"STARLINK-5451","OBJECT_ID":"2022-175P","EPOCH":"2026-01-15T23:20:54.119904","MEAN_MOTION":15.08841131,"ECCENTRICITY":0.00013224,"INCLINATION":53.2173,"RA_OF_ASC_NODE":275.5766,"ARG_OF_PERICENTER":90.9526,"MEAN_ANOMALY":269.1617,"EPHEMERIS_TYPE":0,"CLASSIFICATION_TYPE":"U","NORAD_CAT_ID":54771,"ELEMENT_SET_NO":999,"REV_AT_EPOCH":17203,"BSTAR":7.2154988e-5,"MEAN_MOTION_DOT":8.61e-6,"MEAN_MOTION_DDOT":0}]
