STARLINK-5264           
1 54206U 22141BB  26015.91397202 -.00000156  00000+0  83027-5 0  9991
2 54206  53.2168 195.8763 0001380  92.1912 267.9238 15.08837085178524
STARLINK-5262           
1 54207U 22141BC  26015.96410989 -.00001922  00000+0 -10279-3 0  9995
2 54207  53.2154 230.4226 0001432  57.7213 302.3918 15.08817484178046
STARLINK-5255           
1 54208U 22141BD  26015.80267357 -.00000366  00000+0 -48853-5 0  9990
2 54208  53.2155 206.5852 0001346  93.3169 266.7978 15.08838891178366
STARLINK-5259           
1 54209U 22141BE  26015.96868629 -.00000007  00000+0  17645-4 0  9992
2 54209  53.2163 220.4518 0001513  92.6522 267.4644 15.08840661178187
STARLINK-5464           
1 54758U 22175A   26015.74473308 -.00000193  00000+0  59440-5 0  9996
2 54758  53.2173 276.9932 0001406  94.6313 265.4840 15.08839256171990
STARLINK-5215           
1 54759U 22175B   26015.74841826 -.00000283  00000+0  31600-6 0  9990
2 54759  53.2174 277.0086 0001401  68.3004 291.8137 15.08838649171991
STARLINK-5220           
1 54760U 22175C   26015.74610542  .00000136  00000+0  26627-4 0  9998
2 54760  53.2176 281.9827 0001810  94.6516 265.4683 15.08840889171921
STARLINK-5202           
1 54761U 22175D   26015.74979787 -.00000043  00000+0  15402-4 0  9995
2 54761  53.2174 282.0072 0001508  93.5382 266.5782 15.08837396171928
STARLINK-5214           
1 54762U 22175E   26015.73506311  .00001002  00000+0  81014-4 0  9991
2 54762  53.2176 281.9195 0001350  73.8328 286.2812 15.08842417171924
STARLINK-5191           
1 54763U 22175F   26015.74242814 -.00003619  00000+0 -20937-3 0  9992
2 54763  53.2174 281.9625 0001225  83.0344 277.0788 15.08841796171922
STARLINK-5458           
1 54764U 22175G   26015.98624003  .00000253  00000+0  34011-4 0  9991
2 54764  53.2181 280.6472 0001420  82.9673 277.1481 15.08841800171968
STARLINK-5471           
1 54766U 22175J   26015.72769700  .00000995  00000+0  80595-4 0  9990
2 54766  53.2177 281.8741 0001548  83.1042 277.0127 15.08851473171920
STARLINK-5472           
1 54767U 22175K   26015.72403658  .00017155  00000+0  10952-2 0  9992
2 54767  53.2184 281.8490 0001209 107.2990 252.8134 15.08777970171922
STARLINK-5444           
1 54768U 22175L   26015.82759293 -.00003557  00000+0 -20549-3 0  9990
2 54768  53.2169 266.8190 0001214 110.4575 249.6547 15.08846608172149
STARLINK-5448           
1 54770U 22175N   26015.07957936 -.00000231  00000+0  35909-5 0  9997
2 54770  53.2178 269.9702 0001391  81.2227 278.8923 15.08823613172031
STARLINK-5451           
1 54771U 22175P   26015.97284861  .00000861  00000+0  72155-4 0  9998
2 54771  53.2173 275.5766 0001322  90.9526 269.1617 15.08841131172031
